$$SOE
2461295.500000000, A.D. 2026-Sep-12 00:00:00.0000, -3.159667441079552E+08, 1.364695159442040E+08, 7.282346241536446E+06,
2461302.500000000, A.D. 2026-Sep-19 00:00:00.0000, -3.192389122905478E+08, 1.251575622681309E+08, 7.384541377823785E+06,
2461309.500000000, A.D. 2026-Sep-26 00:00:00.0000, -3.221270212028016E+08, 1.136951626683571E+08, 7.477852125525691E+06,
2461316.500000000, A.D. 2026-Oct-03 00:00:00.0000, -3.246231859483294E+08, 1.020945459604187E+08, 7.562063928197086E+06,
2461323.500000000, A.D. 2026-Oct-10 00:00:00.0000, -3.267198214161952E+08, 9.036839225262621E+07, 7.636968441830836E+06,
2461330.500000000, A.D. 2026-Oct-17 00:00:00.0000, -3.284096682112759E+08, 7.852983474815807E+07, 7.702364156495664E+06,
2461337.500000000, A.D. 2026-Oct-24 00:00:00.0000, -3.296858198184254E+08, 6.659246015394861E+07, 7.758057042412356E+06,
2461344.500000000, A.D. 2026-Oct-31 00:00:00.0000, -3.305417508741907E+08, 5.457030748213378E+07, 7.803861205751255E+06,
2461351.500000000, A.D. 2026-Nov-07 00:00:00.0000, -3.309713461659238E+08, 4.247786516453232E+07, 7.839599528648140E+06,
2461358.500000000, A.D. 2026-Nov-14 00:00:00.0000, -3.309689301006466E+08, 3.033006720830343E+07, 7.865104346781436E+06,
2461365.500000000, A.D. 2026-Nov-21 00:00:00.0000, -3.305292983827218E+08, 1.814228890973091E+07, 7.880218385174677E+06,
2461372.500000000, A.D. 2026-Nov-28 00:00:00.0000, -3.296477528127491E+08, 5.930338949813807E+06, 7.884795796092542E+06,
2461379.500000000, A.D. 2026-Dec-05 00:00:00.0000, -3.283201354846696E+08, -6.289552950044209E+06, 7.878702911454931E+06,
2461386.500000000, A.D. 2026-Dec-12 00:00:00.0000, -3.265428620822496E+08, -1.850074986487348E+07, 7.861818947007897E+06,
2461393.500000000, A.D. 2026-Dec-19 00:00:00.0000, -3.243129560038565E+08, -3.068622315712767E+07, 7.834036828972285E+06,
2461400.500000000, A.D. 2026-Dec-26 00:00:00.0000, -3.216280832860008E+08, -4.282857065541822E+07, 7.795264081155403E+06,
2461407.500000000, A.D. 2027-Jan-02 00:00:00.0000, -3.184865878576460E+08, -5.491003786586665E+07, 7.745423727130309E+06,
2461414.500000000, A.D. 2027-Jan-09 00:00:00.0000, -3.148875267892100E+08, -6.691254233815409E+07, 7.684455193592407E+06,
2461421.500000000, A.D. 2027-Jan-16 00:00:00.0000, -3.108307052566988E+08, -7.881770130724603E+07, 7.612315206869386E+06,
2461428.500000000, A.D. 2027-Jan-23 00:00:00.0000, -3.063167109080203E+08, -9.060686276295610E+07, 7.528978668897167E+06,
2461435.500000000, A.D. 2027-Jan-30 00:00:00.0000, -3.013469471537384E+08, -1.022611400840839E+08, 7.434439484747306E+06,
2461442.500000000, A.D. 2027-Feb-06 00:00:00.0000, -2.959236646415104E+08, -1.137614499564358E+08, 7.328711323340923E+06,
2461449.500000000, A.D. 2027-Feb-13 00:00:00.0000, -2.900499910282506E+08, -1.250885523821852E+08, 7.211828445553534E+06,
2461456.500000000, A.D. 2027-Feb-20 00:00:00.0000, -2.837299610395463E+08, -1.362230935707030E+08, 7.083846743154950E+06,
2461463.500000000, A.D. 2027-Feb-27 00:00:00.0000, -2.769685450341814E+08, -1.471456548997252E+08, 6.944844587976031E+06,
2461470.500000000, A.D. 2027-Mar-06 00:00:00.0000, -2.697716726719083E+08, -1.578368059648974E+08, 6.794923361327671E+06,
2461477.500000000, A.D. 2027-Mar-13 00:00:00.0000, -2.621462529004878E+08, -1.682771595573355E+08, 6.634207968033224E+06,
2461484.500000000, A.D. 2027-Mar-20 00:00:00.0000, -2.541001910002606E+08, -1.784474292368980E+08, 6.462847360590696E+06,
2461491.500000000, A.D. 2027-Mar-27 00:00:00.0000, -2.456424020896831E+08, -1.883284898328167E+08, 6.281014999830984E+06,
2461498.500000000, A.D. 2027-Apr-03 00:00:00.0000, -2.367828205023754E+08, -1.979014406533768E+08, 6.088909219475485E+06,
2461505.500000000, A.D. 2027-Apr-10 00:00:00.0000, -2.275324046036348E+08, -2.071476710630249E+08, 5.886753481542572E+06,
2461512.500000000, A.D. 2027-Apr-17 00:00:00.0000, -2.179031366750389E+08, -2.160489280697872E+08, 5.674796510679454E+06,
2461519.500000000, A.D. 2027-Apr-24 00:00:00.0000, -2.079080174690972E+08, -2.245873855629989E+08, 5.453312286784500E+06,
2461526.500000000, A.D. 2027-May-01 00:00:00.0000, -1.975610548553729E+08, -2.327457147019797E+08, 5.222599863061860E+06,
2461533.500000000, A.D. 2027-May-08 00:00:00.0000, -1.868772460187711E+08, -2.405071541875342E+08, 4.982983035703331E+06,
2461540.500000000, A.D. 2027-May-15 00:00:00.0000, -1.758725545263343E+08, -2.478555788978491E+08, 4.734810074555695E+06,
2461547.500000000, A.D. 2027-May-22 00:00:00.0000, -1.645638837016083E+08, -2.547755688792944E+08, 4.478453441469878E+06,
2461554.500000000, A.D. 2027-May-29 00:00:00.0000, -1.529690428911246E+08, -2.612524795377187E+08, 4.214309065225229E+06,
2461561.500000000, A.D. 2027-Jun-05 00:00:00.0000, -1.411067057523622E+08, -2.672725092627705E+08, 3.942795347039908E+06,
2461568.500000000, A.D. 2027-Jun-12 00:00:00.0000, -1.289963626628078E+08, -2.728227634112456E+08, 3.664352117827028E+06,
2461575.500000000, A.D. 2027-Jun-19 00:00:00.0000, -1.166582677560865E+08, -2.778913149447145E+08, 3.379439505042940E+06,
2461582.500000000, A.D. 2027-Jun-26 00:00:00.0000, -1.041133805638989E+08, -2.824672613532733E+08, 3.088536667611927E+06,
2461589.500000000, A.D. 2027-Jul-03 00:00:00.0000, -9.138330246919355E+07, -2.865407772497424E+08, 2.792140394163102E+06,
2461596.500000000, A.D. 2027-Jul-10 00:00:00.0000, -7.849020834866768E+07, -2.901031620542076E+08, 2.490763570400506E+06,
2461603.500000000, A.D. 2027-Jul-17 00:00:00.0000, -6.545677385726319E+07, -2.931468822815140E+08, 2.184933519934505E+06,
2461610.500000000, A.D. 2027-Jul-24 00:00:00.0000, -5.230609875287652E+07, -2.956656080216142E+08, 1.875190211822331E+06,
2461617.500000000, A.D. 2027-Jul-31 00:00:00.0000, -3.906162646091894E+07, -2.976542429688987E+08, 1.562084330413550E+06,
2461624.500000000, A.D. 2027-Aug-07 00:00:00.0000, -2.574706073891345E+07, -2.991089465148003E+08, 1.246175335293949E+06,
2461631.500000000, A.D. 2027-Aug-14 00:00:00.0000, -1.238628244015406E+07, -3.000271479026409E+08, 9.280297178092152E+05,
2461638.500000000, A.D. 2027-Aug-21 00:00:00.0000, 9.967335182261679E+05, -3.004075556408562E+08, 6.082191391322017E+05,
2461645.500000000, A.D. 2027-Aug-28 00:00:00.0000, 1.437800367508805E+07, -3.002501608984398E+08, 2.873182508269399E+05,
2461652.500000000, A.D. 2027-Sep-04 00:00:00.0000, 2.773362210815801E+07, -2.995562324004738E+08, -3.409747132493556E+04,
2461659.500000000, A.D. 2027-Sep-11 00:00:00.0000, 4.103984495034941E+07, -2.983283035928914E+08, -3.554537884557992E+05,
2461666.500000000, A.D. 2027-Sep-18 00:00:00.0000, 5.427317276114833E+07, -2.965701529206299E+08, -6.761797026594132E+05,
2461673.500000000, A.D. 2027-Sep-25 00:00:00.0000, 6.741043030379352E+07, -2.942867775728881E+08, -9.957094145929366E+05,
2461680.500000000, A.D. 2027-Oct-02 00:00:00.0000, 8.042884316929564E+07, -2.914843610180850E+08, -1.313484223759040E+06,
2461687.500000000, A.D. 2027-Oct-09 00:00:00.0000, 9.330611069194733E+07, -2.881702347493939E+08, -1.628954359980687E+06,
2461694.500000000, A.D. 2027-Oct-16 00:00:00.0000, 1.060204747076359E+08, -2.843528347740355E+08, -1.941580743629977E+06,
2461701.500000000, A.D. 2027-Oct-23 00:00:00.0000, 1.185507839719335E+08, -2.800416533855148E+08, -2.250836686919659E+06,
2461708.500000000, A.D. 2027-Oct-30 00:00:00.0000, 1.308765542400476E+08, -2.752471861830977E+08, -2.556209510002285E+06,
2461715.500000000, A.D. 2027-Nov-06 00:00:00.0000, 1.429780225456660E+08, -2.699808738112994E+08, -2.857201864165768E+06,
2461722.500000000, A.D. 2027-Nov-13 00:00:00.0000, 1.548361934672639E+08, -2.642550411092579E+08, -3.153332743024707E+06,
2461729.500000000, A.D. 2027-Nov-20 00:00:00.0000, 1.664328801310293E+08, -2.580828364713525E+08, -3.444138621781856E+06,
2461736.500000000, A.D. 2027-Nov-27 00:00:00.0000, 1.777507414874356E+08, -2.514781690636515E+08, -3.729174627686769E+06,
2461743.500000000, A.D. 2027-Dec-04 00:00:00.0000, 1.887733138289586E+08, -2.444556435717188E+08, -4.008015480576888E+06,
2461750.500000000, A.D. 2027-Dec-11 00:00:00.0000, 1.994850360649243E+08, -2.370304940081717E+08, -4.280256233058140E+06,
2461757.500000000, A.D. 2027-Dec-18 00:00:00.0000, 2.098712691668078E+08, -2.292185174640140E+08, -4.545512865632296E+06,
2461764.500000000, A.D. 2027-Dec-25 00:00:00.0000, 2.199183101294730E+08, -2.210360083300611E+08, -4.803422753659770E+06,
2461771.500000000, A.D. 2028-Jan-01 00:00:00.0000, 2.296134007211550E+08, -2.124996934636700E+08, -5.053645012212366E+06,
$$EOE